{
  "type": "FeatureCollection",
  "features": [
    {
      "type": "Feature",
      "properties": {
        "norad_id": 37971,
        "name": "COSMOS 2251 DEB",
        "group": "cosmos-2251-debris",
        "lat": -59.02383257865861,
        "lon": -90.22053313118309,
        "alt_km": 700.7661669659547,
        "timestamp": "2025-12-02T08:59:33.112738+00:00",
        "meta_object_name": "COSMOS 2251 DEB",
        "meta_object_id": "1993-036BPW",
        "meta_epoch": "2025-12-01T23:35:09.695040",
        "meta_mean_motion": 14.4833752,
        "meta_eccentricity": 0.0068809,
        "meta_inclination": 73.9931,
        "meta_ra_of_asc_node": 61.947,
        "meta_arg_of_pericenter": 202.8876,
        "meta_mean_anomaly": 156.9214,
        "meta_ephemeris_type": 0,
        "meta_classification_type": "U",
        "meta_norad_cat_id": 37971,
        "meta_element_set_no": 999,
        "meta_rev_at_epoch": 60522,
        "meta_bstar": 0.002276,
        "meta_mean_motion_dot": 8.753e-05,
        "meta_mean_motion_ddot": 0,
        "tle_line1": "1 37971U 93036BPW 25335.98275110  .00008753  00000+0  22760-2 0  9990",
        "tle_line2": "2 37971  73.9931  61.9470 0068809 202.8876 156.9214 14.48337520605222"
      },
      "geometry": {
        "type": "Point",
        "coordinates": [
          -90.22053313118309,
          -59.02383257865861
        ]
      }
    },
    {
      "type": "Feature",
      "properties": {
        "norad_id": 37975,
        "name": "COSMOS 2251 DEB",
        "group": "cosmos-2251-debris",
        "lat": -18.075610213007103,
        "lon": 169.76550651838858,
        "alt_km": 699.3273391998937,
        "timestamp": "2025-12-02T08:59:33.112748+00:00",
        "meta_object_name": "COSMOS 2251 DEB",
        "meta_object_id": "1993-036BQA",
        "meta_epoch": "2025-11-29T10:05:48.736608",
        "meta_mean_motion": 14.74991313,
        "meta_eccentricity": 0.00977788,
        "meta_inclination": 74.0026,
        "meta_ra_of_asc_node": 350.1763,
        "meta_arg_of_pericenter": 342.2584,
        "meta_mean_anomaly": 17.5181,
        "meta_ephemeris_type": 0,
        "meta_classification_type": "U",
        "meta_norad_cat_id": 37975,
        "meta_element_set_no": 999,
        "meta_rev_at_epoch": 69549,
        "meta_bstar": 0.0028756754,
        "meta_mean_motion_dot": 0.00020929,
        "meta_mean_motion_ddot": 0,
        "tle_line1": "1 37975U 93036BQA 25333.42070297  .00020929  00000+0  28757-2 0  9991",
        "tle_line2": "2 37975  74.0026 350.1763 0097778 342.2584  17.5181 14.74991313695491"
      },
      "geometry": {
        "type": "Point",
        "coordinates": [
          169.76550651838858,
          -18.075610213007103
        ]
      }
    },
    {
      "type": "Feature",
      "properties": {
        "norad_id": 37978,
        "name": "COSMOS 2251 DEB",
        "group": "cosmos-2251-debris",
        "lat": 37.03600649818643,
        "lon": 125.12278887098412,
        "alt_km": 343.3984236572496,
        "timestamp": "2025-12-02T08:59:33.112758+00:00",
        "meta_object_name": "COSMOS 2251 DEB",
        "meta_object_id": "1993-036BQD",
        "meta_epoch": "2025-11-19T05:08:53.100672",
        "meta_mean_motion": 15.61137081,
        "meta_eccentricity": 0.00148985,
        "meta_inclination": 74.0238,
        "meta_ra_of_asc_node": 142.2198,
        "meta_arg_of_pericenter": 140.9849,
        "meta_mean_anomaly": 219.2448,
        "meta_ephemeris_type": 0,
        "meta_classification_type": "U",
        "meta_norad_cat_id": 37978,
        "meta_element_set_no": 999,
        "meta_rev_at_epoch": 8032,
        "meta_bstar": 0.0043958825,
        "meta_mean_motion_dot": 0.0039117,
        "meta_mean_motion_ddot": 0,
        "tle_line1": "1 37978U 93036BQD 25323.21450348  .00391170  00000+0  43959-2 0  9999",
        "tle_line2": "2 37978  74.0238 142.2198 0014898 140.9849 219.2448 15.61137081 80328"
      },
      "geometry": {
        "type": "Point",
        "coordinates": [
          125.12278887098412,
          37.03600649818643
        ]
      }
    },
    {
      "type": "Feature",
      "properties": {
        "norad_id": 37985,
        "name": "COSMOS 2251 DEB",
        "group": "cosmos-2251-debris",
        "lat": -35.68096526485995,
        "lon": -87.10789876748505,
        "alt_km": 778.9194346974282,
        "timestamp": "2025-12-02T08:59:33.112768+00:00",
        "meta_object_name": "COSMOS 2251 DEB",
        "meta_object_id": "1993-036BQL",
        "meta_epoch": "2025-11-30T03:38:35.089728",
        "meta_mean_motion": 14.35476198,
        "meta_eccentricity": 0.00203975,
        "meta_inclination": 74.025,
        "meta_ra_of_asc_node": 288.8408,
        "meta_arg_of_pericenter": 55.5438,
        "meta_mean_anomaly": 304.7638,
        "meta_ephemeris_type": 0,
        "meta_classification_type": "U",
        "meta_norad_cat_id": 37985,
        "meta_element_set_no": 999,
        "meta_rev_at_epoch": 64736,
        "meta_bstar": 6.4630742e-05,
        "meta_mean_motion_dot": 1.6e-06,
        "meta_mean_motion_ddot": 0,
        "tle_line1": "1 37985U 93036BQL 25334.15179502  .00000160  00000+0  64631-4 0  9990",
        "tle_line2": "2 37985  74.0250 288.8408 0020397  55.5438 304.7638 14.35476198647366"
      },
      "geometry": {
        "type": "Point",
        "coordinates": [
          -87.10789876748505,
          -35.68096526485995
        ]
      }
    },
    {
      "type": "Feature",
      "properties": {
        "norad_id": 37988,
        "name": "COSMOS 2251 DEB",
        "group": "cosmos-2251-debris",
        "lat": 15.701426928859298,
        "lon": -140.5571097201485,
        "alt_km": 656.4193519104747,
        "timestamp": "2025-12-02T08:59:33.112778+00:00",
        "meta_object_name": "COSMOS 2251 DEB",
        "meta_object_id": "1993-036BQP",
        "meta_epoch": "2025-12-01T20:48:48.431808",
        "meta_mean_motion": 14.68693612,
        "meta_eccentricity": 0.0063397,
        "meta_inclination": 74.0639,
        "meta_ra_of_asc_node": 45.0298,
        "meta_arg_of_pericenter": 86.1947,
        "meta_mean_anomaly": 274.6469,
        "meta_ephemeris_type": 0,
        "meta_classification_type": "U",
        "meta_norad_cat_id": 37988,
        "meta_element_set_no": 999,
        "meta_rev_at_epoch": 23236,
        "meta_bstar": 0.00094923,
        "meta_mean_motion_dot": 5.671e-05,
        "meta_mean_motion_ddot": 0,
        "tle_line1": "1 37988U 93036BQP 25335.86722722  .00005671  00000+0  94923-3 0  9998",
        "tle_line2": "2 37988  74.0639  45.0298 0063397  86.1947 274.6469 14.68693612232367"
      },
      "geometry": {
        "type": "Point",
        "coordinates": [
          -140.5571097201485,
          15.701426928859298
        ]
      }
    },
    {
      "type": "Feature",
      "properties": {
        "norad_id": 37993,
        "name": "COSMOS 2251 DEB",
        "group": "cosmos-2251-debris",
        "lat": -73.35823378319826,
        "lon": 113.28390777852074,
        "alt_km": 685.4297071978253,
        "timestamp": "2025-12-02T08:59:33.112788+00:00",
        "meta_object_name": "COSMOS 2251 DEB",
        "meta_object_id": "1993-036BQU",
        "meta_epoch": "2025-12-01T21:52:04.123776",
        "meta_mean_motion": 14.59713379,
        "meta_eccentricity": 0.0022073,
        "meta_inclination": 74.0242,
        "meta_ra_of_asc_node": 187.5873,
        "meta_arg_of_pericenter": 277.3102,
        "meta_mean_anomaly": 82.5554,
        "meta_ephemeris_type": 0,
        "meta_classification_type": "U",
        "meta_norad_cat_id": 37993,
        "meta_element_set_no": 999,
        "meta_rev_at_epoch": 65159,
        "meta_bstar": 0.0013361,
        "meta_mean_motion_dot": 6.369e-05,
        "meta_mean_motion_ddot": 0,
        "tle_line1": "1 37993U 93036BQU 25335.91115884  .00006369  00000+0  13361-2 0  9996",
        "tle_line2": "2 37993  74.0242 187.5873 0022073 277.3102  82.5554 14.59713379651591"
      },
      "geometry": {
        "type": "Point",
        "coordinates": [
          113.28390777852074,
          -73.35823378319826
        ]
      }
    },
    {
      "type": "Feature",
      "properties": {
        "norad_id": 37994,
        "name": "COSMOS 2251 DEB",
        "group": "cosmos-2251-debris",
        "lat": 34.151020594132554,
        "lon": -53.974504139180596,
        "alt_km": 742.2159146706153,
        "timestamp": "2025-12-02T08:59:33.112798+00:00",
        "meta_object_name": "COSMOS 2251 DEB",
        "meta_object_id": "1993-036BQV",
        "meta_epoch": "2025-12-02T03:49:27.846048",
        "meta_mean_motion": 14.39580246,
        "meta_eccentricity": 0.0022427,
        "meta_inclination": 74.0357,
        "meta_ra_of_asc_node": 295.226,
        "meta_arg_of_pericenter": 16.945,
        "meta_mean_anomaly": 343.2449,
        "meta_ephemeris_type": 0,
        "meta_classification_type": "U",
        "meta_norad_cat_id": 37994,
        "meta_element_set_no": 999,
        "meta_rev_at_epoch": 76912,
        "meta_bstar": 0.00044304,
        "meta_mean_motion_dot": 1.361e-05,
        "meta_mean_motion_ddot": 0,
        "tle_line1": "1 37994U 93036BQV 25336.15935007  .00001361  00000+0  44304-3 0  9990",
        "tle_line2": "2 37994  74.0357 295.2260 0022427  16.9450 343.2449 14.39580246769124"
      },
      "geometry": {
        "type": "Point",
        "coordinates": [
          -53.974504139180596,
          34.151020594132554
        ]
      }
    }
  ]
}